[{"OBJECT_NAME":"STARLINK-31393","OBJECT_ID":"2024-049X","EPOCH":"2026-03-09T05:28:32.217024","MEAN_MOTION":15.27571272,"ECCENTRICITY":6.176e-5,"INCLINATION":43.0004,"RA_OF_ASC_NODE":131.5827,"ARG_OF_PERICENTER":279.7597,"MEAN_ANOMALY":80.3185,"EPHEMERIS_TYPE":0,"CLASSIFICATION_TYPE":"U","NORAD_CAT_ID":59252,"ELEMENT_SET_NO":999,"REV_AT_EPOCH":11250,"BSTAR":-3.4105283e-5,"MEAN_MOTION_DOT":-1.2e-5,"MEAN_MOTION_DDOT":0},{"OBJECT_NAME":"H-2A R\/B","OBJECT_ID":"2006-002B","EPOCH":"2026-03-09T22:32:18.942432","MEAN_MOTION":15.16426804,"ECCENTRICITY":0.00518947,"INCLINATION":98.2413,"RA_OF_ASC_NODE":215.9838,"ARG_OF_PERICENTER":240.1322,"MEAN_ANOMALY":119.4746,"EPHEMERIS_TYPE":0,"CLASSIFICATION_TYPE":"U","NORAD_CAT_ID":28932,"ELEMENT_SET_NO":999,"REV_AT_EPOCH":9447,"BSTAR":0.00057792596,"MEAN_MOTION_DOT":0.00011556,"MEAN_MOTION_DDOT":0}]
